[Satellite]
VERSION=1.1
NAME=CASSIOPE
NICKNAME=CASSIOPE
TLE1=1 39265U 13055A   15054.78726601  .00022653  00000-0  70933-3 0  9994
TLE2=2 39265  80.9795 162.0866 0740908 158.9325 323.3387 14.10339158 71849
